GLOBAL-31               
1 63027U 25033B   26187.41734745  .00009562  00000+0  25996-3 0  9995
2 63027  58.9971 238.4342 0011044  52.9681 307.2403 15.38194863 77287
GLOBAL-32               
1 64231U 25118B   26186.97192657  .00016131  00000+0  41831-3 0  9993
2 64231  58.9934  56.4986 0015733  55.4131 304.8427 15.39115090 61135
GLOBAL-33               
1 66554U 25267A   26187.40594110  .00010433  00000+0  28678-3 0  9990
2 66554  42.0199 304.4478 0008843  21.4067 338.7141 15.37173430 35005
GLOBAL-34               
1 68098U 26043A   26186.98801426  .00011692  00000+0  36638-3 0  9994
2 68098  42.0211 112.0425 0001914  24.6163 335.4765 15.32981142 18711
