{"fetched_at":"2026-07-07T07:58:32.886Z","source":"https://celestrak.org/NORAD/elements/gp.php?NAME=GLOBAL&FORMAT=JSON","constellation":"blacksky-gen3","records":[{"OBJECT_NAME":"GLOBAL-31","OBJECT_ID":"2025-033B","EPOCH":"2026-07-06T10:00:58.819680","CLASSIFICATION_TYPE":"U","MEAN_MOTION":15.38194863,"ECCENTRICITY":0.0011044,"INCLINATION":58.9971,"RA_OF_ASC_NODE":238.4342,"ARG_OF_PERICENTER":52.9681,"MEAN_ANOMALY":307.2403,"EPHEMERIS_TYPE":0,"NORAD_CAT_ID":63027,"ELEMENT_SET_NO":999,"REV_AT_EPOCH":7728,"BSTAR":0.00025996,"MEAN_MOTION_DOT":0.00009562,"MEAN_MOTION_DDOT":0},{"OBJECT_NAME":"GLOBAL-32","OBJECT_ID":"2025-118B","EPOCH":"2026-07-05T23:19:34.455648","CLASSIFICATION_TYPE":"U","MEAN_MOTION":15.3911509,"ECCENTRICITY":0.00157334,"INCLINATION":58.9934,"RA_OF_ASC_NODE":56.4986,"ARG_OF_PERICENTER":55.4131,"MEAN_ANOMALY":304.8427,"EPHEMERIS_TYPE":0,"NORAD_CAT_ID":64231,"ELEMENT_SET_NO":999,"REV_AT_EPOCH":6113,"BSTAR":0.00041831489,"MEAN_MOTION_DOT":0.00016131,"MEAN_MOTION_DDOT":0},{"OBJECT_NAME":"GLOBAL-33","OBJECT_ID":"2025-267A","EPOCH":"2026-07-06T09:44:33.311040","CLASSIFICATION_TYPE":"U","MEAN_MOTION":15.3717343,"ECCENTRICITY":0.00088431,"INCLINATION":42.0199,"RA_OF_ASC_NODE":304.4478,"ARG_OF_PERICENTER":21.4067,"MEAN_ANOMALY":338.7141,"EPHEMERIS_TYPE":0,"NORAD_CAT_ID":66554,"ELEMENT_SET_NO":999,"REV_AT_EPOCH":3500,"BSTAR":0.00028677691,"MEAN_MOTION_DOT":0.00010433,"MEAN_MOTION_DDOT":0},{"OBJECT_NAME":"GLOBAL-34","OBJECT_ID":"2026-043A","EPOCH":"2026-07-05T23:42:44.432064","CLASSIFICATION_TYPE":"U","MEAN_MOTION":15.32981142,"ECCENTRICITY":0.0001914,"INCLINATION":42.0211,"RA_OF_ASC_NODE":112.0425,"ARG_OF_PERICENTER":24.6163,"MEAN_ANOMALY":335.4765,"EPHEMERIS_TYPE":0,"NORAD_CAT_ID":68098,"ELEMENT_SET_NO":999,"REV_AT_EPOCH":1871,"BSTAR":0.00036638,"MEAN_MOTION_DOT":0.00011692,"MEAN_MOTION_DDOT":0}]}
